FENGYUN 3A              
1 32958U 08026A   26197.43890171  .00000023  00000+0  31374-4 0  9997
2 32958  98.6886 137.7257 0009637  48.7192 311.4813 14.19576612939556
EWS-G3 (GOES 14)        
1 35491U 09033A   26197.79345898 -.00000370  00000+0  00000+0 0  9994
2 35491   1.7642  82.6722 0001976  40.0506 221.6138  1.00097372  6883
EWS-G2 (GOES 15)        
1 36411U 10008A   26197.85273833  .00000012  00000+0  00000+0 0  9999
2 36411   1.3575  82.4387 0005292  53.9163 168.6000  1.00268690 59934
FENGYUN 3B              
1 37214U 10059A   26197.87354465 -.00000367  00000+0 -16656-3 0  9993
2 37214  98.9603 244.0115 0023184 101.9580   7.2017 14.14845357811620
EXACTVIEW-1 (ADS-1B)    
1 38709U 12039C   26197.80151939  .00000033  00000+0  33987-4 0  9992
2 38709  98.9807 315.8646 0011956  87.4053 272.8494 14.24992457726921
DUBAISAT-2              
1 39419U 13066D   26197.81899258  .00001544  00000+0  97792-4 0  9998
2 39419  97.4577 187.1925 0009231 297.1625  62.8663 15.10381137690867
FENGYUN 2G              
1 40367U 14090A   26197.83497266 -.00000315  00000+0  00000+0 0  9992
2 40367   5.7114  72.4541 0004190 172.9611  89.1999  1.00280173 42298
ELEKTRO-L 2             
1 41105U 15074A   26197.83737737 -.00000131  00000+0  00000+0 0  9992
2 41105   6.7666  70.1551 0001006 214.4188 297.0458  1.00272116 38802
FENGYUN 2H              
1 43491U 18050A   26197.85585836 -.00000138  00000+0  00000+0 0  9999
2 43491   3.1055  78.7204 0002294 133.9095 109.2651  1.00266973 29731
EOS-4                   
1 51656U 22013A   26197.86553544  .00000783  00000+0  48346-4 0  9992
2 51656  97.5112 204.0613 0002096  89.6781 270.4690 15.12725234243977
